QIANFAN-81              
1 63167U 25046J   25223.61662622  .00000167  00000+0  23938-3 0  9996
2 63167  88.9865 332.5634 0016714 115.9853 244.3022 13.50962853 30862
QIANFAN-82              
1 63168U 25046K   25223.57535544  .00000171  00000+0  24588-3 0  9991
2 63168  88.9865 332.6110 0014805 122.8909 237.3669 13.50959747 30846
QIANFAN-83              
1 63169U 25046L   25223.56681193  .00000209  00000+0  25544-3 0  9998
2 63169  88.9864 332.6294 0016161 115.8729 244.4097 13.61934487 30837
QIANFAN-84              
1 63170U 25046M   25223.60417817  .00000173  00000+0  24965-3 0  9991
2 63170  88.9864 332.7412 0017799 119.8809 240.4114 13.50966899 30772
QIANFAN-85              
1 63171U 25046N   25223.60015835  .00000175  00000+0  25239-3 0  9993
2 63171  88.9864 332.6138 0015161 121.9108 238.3520 13.50960816 30842
QIANFAN-86              
1 63172U 25046P   25223.60838314  .00000167  00000+0  23920-3 0  9995
2 63172  88.9866 332.4722 0013011 125.3052 234.9318 13.50961189 30920
QIANFAN-87              
1 63173U 25046Q   25223.57948670  .00000139  00000+0  19611-3 0  9990
2 63173  88.9863 332.5915 0013760 121.0672 239.1832 13.50957733 30855
QIANFAN-88              
1 63174U 25046R   25223.59610245  .00000179  00000+0  25784-3 0  9999
2 63174  88.9865 332.5413 0014068 128.0743 232.1680 13.50965290 30883
